1 08820U 76039A   03244.68588469  .00000013  00000-0  10000-3 0  9516
2 08820 109.8102 207.7777 0044479 284.8219  74.7421  6.38664451381943
